[{"OBJECT_NAME":"CELESTIS-17 & SHERPA-FX1","OBJECT_ID":"2021-006CB","EPOCH":"2026-03-09T15:26:05.078112","MEAN_MOTION":15.30994801,"ECCENTRICITY":0.000663,"INCLINATION":97.2397,"RA_OF_ASC_NODE":112.1052,"ARG_OF_PERICENTER":178.1385,"MEAN_ANOMALY":181.9882,"EPHEMERIS_TYPE":0,"CLASSIFICATION_TYPE":"U","NORAD_CAT_ID":47486,"ELEMENT_SET_NO":999,"REV_AT_EPOCH":28406,"BSTAR":0.00024301,"MEAN_MOTION_DOT":7.207e-5,"MEAN_MOTION_DDOT":0},{"OBJECT_NAME":"STARLINK-2576","OBJECT_ID":"2021-038AZ","EPOCH":"2026-03-09T22:53:25.929312","MEAN_MOTION":15.30182761,"ECCENTRICITY":0.00010897,"INCLINATION":53.1586,"RA_OF_ASC_NODE":331.3901,"ARG_OF_PERICENTER":73.3268,"MEAN_ANOMALY":286.7852,"EPHEMERIS_TYPE":0,"CLASSIFICATION_TYPE":"U","NORAD_CAT_ID":48400,"ELEMENT_SET_NO":999,"REV_AT_EPOCH":26748,"BSTAR":-3.3990603e-5,"MEAN_MOTION_DOT":-1.365e-5,"MEAN_MOTION_DDOT":0}]
